0 TITAN 3C TRANSTAGE DEB
1 34165U 65108CY  13288.37608994  .00003183  00000-0  10250-1 0  1959
2 34165 026.5089 127.5763 6487165 152.9122 265.1795 03.18018835107506
0 TITAN 3C TRANSTAGE DEB
1 34165U 65108CY  13293.71104047  .00002807  00000-0  95223-2 0  1960
2 34165 026.5159 124.7490 6486611 157.7098 253.2282 03.18047550107673
